OBJECT_NAME,OBJECT_ID,EPOCH,MEAN_MOTION,ECCENTRICITY,INCLINATION,RA_OF_ASC_NODE,ARG_OF_PERICENTER,MEAN_ANOMALY,EPHEMERIS_TYPE,CLASSIFICATION_TYPE,NORAD_CAT_ID,ELEMENT_SET_NO,REV_AT_EPOCH,BSTAR,MEAN_MOTION_DOT,MEAN_MOTION_DDOT
POLYITAN-1,2014-033AJ,2026-07-13T14:32:25.865952,15.34182579,.0008032,98.0935,223.3833,69.0033,291.2066,0,U,40042,999,65764,.34337E-3,.11285E-3,0
TIGRISAT,2014-033AK,2026-07-13T15:50:50.074656,14.85246908,.004875,97.7861,344.0710,349.4137,10.6048,0,U,40043,999,64955,.97538E-4,.798E-5,0
AEROCUBE 6A,2014-033AM,2026-07-13T09:42:26.746272,14.98332074,.00364503,97.7236,1.0799,287.1710,72.5524,0,U,40045,999,65054,.26419301E-3,.3127E-4,0
AEROCUBE 6B,2014-033AN,2026-07-13T10:45:07.615584,14.99788967,.00380077,97.7196,0.9676,276.2664,83.4230,0,U,40046,999,65069,.21843297E-3,.2679E-4,0
CANX-4,2014-034C,2026-07-13T15:09:03.106080,14.81309629,.0011467,98.3086,70.9111,288.5031,71.4934,0,U,40055,999,64844,.64859E-4,.449E-5,0
CANX-5,2014-034D,2026-07-13T15:06:21.049056,14.81326996,.001146,98.3088,70.9543,288.7067,71.2900,0,U,40056,999,63925,.65049E-4,.451E-5,0
UKUBE-1,2014-037F,2026-07-13T11:26:38.781600,15.13935151,.00033271,98.4240,200.5192,92.0376,268.1233,0,U,40074,999,65253,.2513254E-3,.4476E-4,0
BRITE-PL2 (HEWELIUSZ),2014-049B,2026-07-13T18:00:24.384672,14.94684980,.001448,97.9120,306.9592,26.9813,333.2156,0,U,40119,999,64541,.65131E-4,.648E-5,0
AEROCUBE 5C,2015-058B,2026-07-13T07:41:28.853376,14.91569281,.01322096,64.7652,181.2824,53.1402,308.1745,0,U,40965,999,36955,.17186552E-3,.1862E-4,0
AEROCUBE 7,2015-058C,2026-07-13T15:25:40.326240,14.95904974,.0121941,64.7609,161.9388,51.3401,309.8549,0,U,40966,999,36991,.24038E-3,.2949E-4,0
FOX-1A (AO-85),2015-058D,2026-07-13T09:02:14.152416,14.91081725,.01322082,64.7723,197.5870,46.4986,314.7024,0,U,40967,999,11747,.15941732E-3,.169E-4,0
SINOD-D 1,2015-058E,2026-07-13T08:24:22.489920,14.96077409,.01208962,64.7731,176.9685,42.8594,318.1865,0,U,40968,999,12057,.23838974E-3,.293E-4,0
SNAP-3 ALICE,2015-058G,2026-07-13T20:18:02.990016,15.66961644,.0024385,64.7492,11.3025,349.1970,10.8652,0,U,40970,999,12105,.86681E-3,.94939E-3,0
LMRST-SAT,2015-058H,2026-07-13T09:44:10.062528,14.90697105,.01337681,64.7731,193.8846,48.4907,312.7591,0,U,40971,999,11746,.15505826E-3,.1627E-4,0
SNAP-3 EDDIE,2015-058J,2026-07-13T21:04:52.716288,15.68332074,.0025223,64.7400,1.7103,351.6214,8.4511,0,U,40972,999,12320,.8661E-3,.100523E-2,0
PROPCUBE 3,2015-058K,2026-07-13T09:02:17.619648,14.94407083,.01256018,64.7667,170.6999,49.6933,311.5075,0,U,40973,999,11871,.20685019E-3,.2428E-4,0
BISONSAT,2015-058L,2026-07-13T20:55:53.757408,15.16909871,.008197,64.7587,87.3197,36.4056,324.2604,0,U,40974,999,11966,.41377E-3,.8729E-4,0
SNAP-3 JIMI,2015-058M,2026-07-13T06:45:48.237984,15.02592193,.0107717,64.7643,137.1920,45.0565,315.9226,0,U,40975,999,11814,.30462E-3,.4425E-4,0
PROPCUBE 1 (FLORA),2015-058N,2026-07-13T18:54:07.051104,14.89323452,.0132379,64.7718,212.7869,50.6270,310.6479,0,U,40976,999,12022,.12455E-3,.1216E-4,0
SINOD-D 3,2015-058P,2026-07-13T09:53:56.696064,14.94165190,.01209149,64.7700,193.9150,47.8300,313.3005,0,U,40977,999,11867,.2033941E-3,.2341E-4,0
RAVAN,2016-067B,2026-07-13T16:01:09.866784,15.57350271,.0002006,97.9846,87.3496,225.1788,134.9303,0,U,41849,999,53181,.47624E-3,.34803E-3,0
CELTEE 1,2016-067C,2026-07-13T14:36:20.265696,15.19931554,.0002287,98.0640,62.9779,111.9724,248.1752,0,U,41850,999,52989,.13527E-3,.2829E-4,0
OPTICUBE 04,2016-067D,2026-07-13T15:46:05.842848,15.09768414,.0016277,98.0675,48.3201,32.8445,327.3791,0,U,41851,999,52916,.78924E-4,.1206E-4,0
AEROCUBE 8D,2016-067E,2026-07-13T14:32:17.892096,15.24755969,.0004683,98.0647,66.7886,60.9007,299.2697,0,U,41852,999,53009,.18105E-3,.4403E-4,0
AEROCUBE 8C,2016-067F,2026-07-13T15:01:59.046240,15.25010493,.0004471,98.0521,64.0049,347.6980,12.4146,0,U,41853,999,53009,.17185E-3,.4207E-4,0
CORVUS BC2,2017-042X,2026-07-13T18:22:07.809888,15.06452530,.0013579,97.4090,355.0880,27.8263,332.3689,0,U,42846,999,49106,.96345E-4,.1364E-4,0
CORVUS BC1,2017-042Y,2026-07-13T16:34:30.643680,15.06615457,.0011755,97.4116,355.8472,5.7954,354.3408,0,U,42847,999,49108,.73816E-4,.1035E-4,0
MAKERSAT 0,2017-073D,2026-07-13T14:58:38.311392,15.32968226,.0105364,97.4590,77.3600,177.8429,182.3290,0,U,43016,999,47051,.32412E-3,.12247E-3,0
SIRION PATHFINDER-2,2018-099B,2026-07-12T22:42:56.582208,15.14767949,.00082388,97.4243,242.3930,199.6407,160.4509,0,U,43759,999,41652,.16275605E-3,.2956E-4,0
CORVUS BC4,2018-099K,2026-07-13T15:35:30.660288,15.12695481,.0006495,97.4055,236.8562,267.5347,92.5141,0,U,43767,999,41640,.13824E-3,.2357E-4,0
